{
"type": "FeatureCollection",
"name": "world-centroids",
"crs": { "type": "name", "properties": { "name": "urn:ogc:def:crs:OGC:1.3:CRS84" } },
"features": [
{ "type": "Feature", "properties": { "id": "AFG", "name": "Afghanistan" }, "geometry": { "type": "Point", "coordinates": [ 66.128256478369664, 33.936672489855873 ] } },
{ "type": "Feature", "properties": { "id": "AGO", "name": "Angola" }, "geometry": { "type": "Point", "coordinates": [ 17.473202850664862, -12.302890634962909 ] } },
{ "type": "Feature", "properties": { "id": "ALB", "name": "Albania" }, "geometry": { "type": "Point", "coordinates": [ 20.031537271878499, 41.153802411480108 ] } },
{ "type": "Feature", "properties": { "id": "ARE", "name": "United Arab Emirates" }, "geometry": { "type": "Point", "coordinates": [ 54.210847289502958, 23.875708613821367 ] } },
{ "type": "Feature", "properties": { "id": "ARG", "name": "Argentina" }, "geometry": { "type": "Point", "coordinates": [ -65.418196689348036, -36.704500644472674 ] } },
{ "type": "Feature", "properties": { "id": "ARM", "name": "Armenia" }, "geometry": { "type": "Point", "coordinates": [ 44.995381503134247, 40.224791375269497 ] } },
{ "type": "Feature", "properties": { "id": "ATA", "name": "Antarctica" }, "geometry": { "type": "Point", "coordinates": [ 22.345383442752933, -79.926046301825636 ] } },
{ "type": "Feature", "properties": { "id": "ATF", "name": "French Southern and Antarctic Lands" }, "geometry": { "type": "Point", "coordinates": [ 69.531920902521307, -49.308503641114257 ] } },
{ "type": "Feature", "properties": { "id": "AUS", "name": "Australia" }, "geometry": { "type": "Point", "coordinates": [ 134.616546132043709, -26.22959979659818 ] } },
{ "type": "Feature", "properties": { "id": "AUT", "name": "Austria" }, "geometry": { "type": "Point", "coordinates": [ 14.083917227819599, 47.624674374378117 ] } },
{ "type": "Feature", "properties": { "id": "AZE", "name": "Azerbaijan" }, "geometry": { "type": "Point", "coordinates": [ 47.553272351739132, 40.233876101746745 ] } },
{ "type": "Feature", "properties": { "id": "BDI", "name": "Burundi" }, "geometry": { "type": "Point", "coordinates": [ 29.913827996426839, -3.377808625028849 ] } },
{ "type": "Feature", "properties": { "id": "BEL", "name": "Belgium" }, "geometry": { "type": "Point", "coordinates": [ 4.577786164734047, 50.658092045065025 ] } },
{ "type": "Feature", "properties": { "id": "BEN", "name": "Benin" }, "geometry": { "type": "Point", "coordinates": [ 2.337892578256251, 9.657969198391207 ] } },
{ "type": "Feature", "properties": { "id": "BFA", "name": "Burkina Faso" }, "geometry": { "type": "Point", "coordinates": [ -1.773291792677782, 12.319883456464247 ] } },
{ "type": "Feature", "properties": { "id": "BGD", "name": "Bangladesh" }, "geometry": { "type": "Point", "coordinates": [ 90.263701043540067, 23.855047452946813 ] } },
{ "type": "Feature", "properties": { "id": "BGR", "name": "Bulgaria" }, "geometry": { "type": "Point", "coordinates": [ 25.198676465683732, 42.765344247177374 ] } },
{ "type": "Feature", "properties": { "id": "BHS", "name": "The Bahamas" }, "geometry": { "type": "Point", "coordinates": [ -77.930531853907993, 25.530140668018163 ] } },
{ "type": "Feature", "properties": { "id": "BIH", "name": "Bosnia and Herzegovina" }, "geometry": { "type": "Point", "coordinates": [ 17.81367539360625, 44.189707828064705 ] } },
{ "type": "Feature", "properties": { "id": "BLR", "name": "Belarus" }, "geometry": { "type": "Point", "coordinates": [ 27.989980271890456, 53.553515603682641 ] } },
{ "type": "Feature", "properties": { "id": "BLZ", "name": "Belize" }, "geometry": { "type": "Point", "coordinates": [ -88.702990860772658, 17.200486460357368 ] } },
{ "type": "Feature", "properties": { "id": "BOL", "name": "Bolivia" }, "geometry": { "type": "Point", "coordinates": [ -64.635480900917045, -16.796769227546111 ] } },
{ "type": "Feature", "properties": { "id": "BRA", "name": "Brazil" }, "geometry": { "type": "Point", "coordinates": [ -52.991372602352882, -11.210935412453528 ] } },
{ "type": "Feature", "properties": { "id": "BRN", "name": "Brunei" }, "geometry": { "type": "Point", "coordinates": [ 114.915182003184157, 4.690459694162928 ] } },
{ "type": "Feature", "properties": { "id": "BTN", "name": "Bhutan" }, "geometry": { "type": "Point", "coordinates": [ 90.472131561902643, 27.429807254244039 ] } },
{ "type": "Feature", "properties": { "id": "BWA", "name": "Botswana" }, "geometry": { "type": "Point", "coordinates": [ 23.767966513437248, -22.147391491473787 ] } },
{ "type": "Feature", "properties": { "id": "CAF", "name": "Central African Republic" }, "geometry": { "type": "Point", "coordinates": [ 20.377761421356862, 6.551131348517905 ] } },
{ "type": "Feature", "properties": { "id": "CAN", "name": "Canada" }, "geometry": { "type": "Point", "coordinates": [ -96.998220211425249, 67.990635762484615 ] } },
{ "type": "Feature", "properties": { "id": "CHE", "name": "Switzerland" }, "geometry": { "type": "Point", "coordinates": [ 8.11943462421662, 46.797495952680066 ] } },
{ "type": "Feature", "properties": { "id": "CHL", "name": "Chile" }, "geometry": { "type": "Point", "coordinates": [ -71.665413759820851, -41.698743171242455 ] } },
{ "type": "Feature", "properties": { "id": "CHN", "name": "China" }, "geometry": { "type": "Point", "coordinates": [ 104.206831476343652, 37.585669094586848 ] } },
{ "type": "Feature", "properties": { "id": "CIV", "name": "Ivory Coast" }, "geometry": { "type": "Point", "coordinates": [ -5.612054879857019, 7.56143819119671 ] } },
{ "type": "Feature", "properties": { "id": "CMR", "name": "Cameroon" }, "geometry": { "type": "Point", "coordinates": [ 12.614517932539627, 5.680086424899429 ] } },
{ "type": "Feature", "properties": { "id": "COD", "name": "Democratic Republic of the Congo" }, "geometry": { "type": "Point", "coordinates": [ 23.586531644493533, -2.876767920804661 ] } },
{ "type": "Feature", "properties": { "id": "COG", "name": "Republic of the Congo" }, "geometry": { "type": "Point", "coordinates": [ 15.133691383997776, -0.839886424638834 ] } },
{ "type": "Feature", "properties": { "id": "COL", "name": "Colombia" }, "geometry": { "type": "Point", "coordinates": [ -73.079944929184748, 3.948402803864339 ] } },
{ "type": "Feature", "properties": { "id": "CRI", "name": "Costa Rica" }, "geometry": { "type": "Point", "coordinates": [ -84.176566577274073, 9.967715711977247 ] } },
{ "type": "Feature", "properties": { "id": "CUB", "name": "Cuba" }, "geometry": { "type": "Point", "coordinates": [ -78.975045060639886, 21.640873696971607 ] } },
{ "type": "Feature", "properties": { "id": "-99", "name": "Northern Cyprus" }, "geometry": { "type": "Point", "coordinates": [ 33.558465793825818, 35.274245752973918 ] } },
{ "type": "Feature", "properties": { "id": "CYP", "name": "Cyprus" }, "geometry": { "type": "Point", "coordinates": [ 33.039537406252954, 34.907437172031244 ] } },
{ "type": "Feature", "properties": { "id": "CZE", "name": "Czech Republic" }, "geometry": { "type": "Point", "coordinates": [ 15.33044717523884, 49.78502208443863 ] } },
{ "type": "Feature", "properties": { "id": "DEU", "name": "Germany" }, "geometry": { "type": "Point", "coordinates": [ 10.298018037501013, 51.246770191586748 ] } },
{ "type": "Feature", "properties": { "id": "DJI", "name": "Djibouti" }, "geometry": { "type": "Point", "coordinates": [ 42.498246796321801, 11.774062098419034 ] } },
{ "type": "Feature", "properties": { "id": "DNK", "name": "Denmark" }, "geometry": { "type": "Point", "coordinates": [ 9.871310638290941, 56.082201666455681 ] } },
{ "type": "Feature", "properties": { "id": "DOM", "name": "Dominican Republic" }, "geometry": { "type": "Point", "coordinates": [ -70.462560527165721, 18.886536650484803 ] } },
{ "type": "Feature", "properties": { "id": "DZA", "name": "Algeria" }, "geometry": { "type": "Point", "coordinates": [ 2.596607854114414, 28.44986505342165 ] } },
{ "type": "Feature", "properties": { "id": "ECU", "name": "Ecuador" }, "geometry": { "type": "Point", "coordinates": [ -78.384467879718684, -1.456228459604088 ] } },
{ "type": "Feature", "properties": { "id": "EGY", "name": "Egypt" }, "geometry": { "type": "Point", "coordinates": [ 29.836203441937329, 26.606069685898895 ] } },
{ "type": "Feature", "properties": { "id": "ERI", "name": "Eritrea" }, "geometry": { "type": "Point", "coordinates": [ 38.672973692734566, 15.436655791574511 ] } },
{ "type": "Feature", "properties": { "id": "ESP", "name": "Spain" }, "geometry": { "type": "Point", "coordinates": [ -3.614583978206339, 40.433501581367416 ] } },
{ "type": "Feature", "properties": { "id": "EST", "name": "Estonia" }, "geometry": { "type": "Point", "coordinates": [ 25.822003851574525, 58.655650081940962 ] } },
{ "type": "Feature", "properties": { "id": "ETH", "name": "Ethiopia" }, "geometry": { "type": "Point", "coordinates": [ 39.546181646617249, 8.684797993645752 ] } },
{ "type": "Feature", "properties": { "id": "FIN", "name": "Finland" }, "geometry": { "type": "Point", "coordinates": [ 26.241800726824302, 64.918432229793112 ] } },
{ "type": "Feature", "properties": { "id": "FJI", "name": "Fiji" }, "geometry": { "type": "Point", "coordinates": [ 163.931578113561301, -17.319925870927339 ] } },
{ "type": "Feature", "properties": { "id": "FLK", "name": "Falkland Islands" }, "geometry": { "type": "Point", "coordinates": [ -59.422430451737867, -51.715306595544618 ] } },
{ "type": "Feature", "properties": { "id": "FRA", "name": "France" }, "geometry": { "type": "Point", "coordinates": [ -1.34365395196068, 44.334600817662015 ] } },
{ "type": "Feature", "properties": { "id": "GAB", "name": "Gabon" }, "geometry": { "type": "Point", "coordinates": [ 11.687682202918079, -0.647620778478901 ] } },
{ "type": "Feature", "properties": { "id": "GBR", "name": "United Kingdom" }, "geometry": { "type": "Point", "coordinates": [ -2.90271659932972, 54.10193742713205 ] } },
{ "type": "Feature", "properties": { "id": "GEO", "name": "Georgia" }, "geometry": { "type": "Point", "coordinates": [ 43.472659574031411, 42.170223190502625 ] } },
{ "type": "Feature", "properties": { "id": "GHA", "name": "Ghana" }, "geometry": { "type": "Point", "coordinates": [ -1.236915521260544, 7.939325288379671 ] } },
{ "type": "Feature", "properties": { "id": "GIN", "name": "Guinea" }, "geometry": { "type": "Point", "coordinates": [ -11.063642598445202, 10.454423363014858 ] } },
{ "type": "Feature", "properties": { "id": "GMB", "name": "Gambia" }, "geometry": { "type": "Point", "coordinates": [ -15.431649193835421, 13.475500147623588 ] } },
{ "type": "Feature", "properties": { "id": "GNB", "name": "Guinea Bissau" }, "geometry": { "type": "Point", "coordinates": [ -15.110576703357282, 12.023407372935541 ] } },
{ "type": "Feature", "properties": { "id": "GNQ", "name": "Equatorial Guinea" }, "geometry": { "type": "Point", "coordinates": [ 10.366032191427186, 1.64595761003678 ] } },
{ "type": "Feature", "properties": { "id": "GRC", "name": "Greece" }, "geometry": { "type": "Point", "coordinates": [ 22.720528167572528, 39.123935158175705 ] } },
{ "type": "Feature", "properties": { "id": "GRL", "name": "Greenland" }, "geometry": { "type": "Point", "coordinates": [ -41.234562754187976, 77.380120740464491 ] } },
{ "type": "Feature", "properties": { "id": "GTM", "name": "Guatemala" }, "geometry": { "type": "Point", "coordinates": [ -90.368259762512153, 15.707789140875434 ] } },
{ "type": "Feature", "properties": { "id": "GUY", "name": "Guyana" }, "geometry": { "type": "Point", "coordinates": [ -58.972290134555166, 4.797483570493461 ] } },
{ "type": "Feature", "properties": { "id": "HND", "name": "Honduras" }, "geometry": { "type": "Point", "coordinates": [ -86.588712517180412, 14.825747551710748 ] } },
{ "type": "Feature", "properties": { "id": "HRV", "name": "Croatia" }, "geometry": { "type": "Point", "coordinates": [ 16.566452321809155, 45.037143572333079 ] } },
{ "type": "Feature", "properties": { "id": "HTI", "name": "Haiti" }, "geometry": { "type": "Point", "coordinates": [ -72.657162382117619, 18.903448443480563 ] } },
{ "type": "Feature", "properties": { "id": "HUN", "name": "Hungary" }, "geometry": { "type": "Point", "coordinates": [ 19.364909364270954, 47.211651366254962 ] } },
{ "type": "Feature", "properties": { "id": "IDN", "name": "Indonesia" }, "geometry": { "type": "Point", "coordinates": [ 117.431716506669758, -2.233973965631704 ] } },
{ "type": "Feature", "properties": { "id": "IND", "name": "India" }, "geometry": { "type": "Point", "coordinates": [ 79.611821692029594, 23.250869777397128 ] } },
{ "type": "Feature", "properties": { "id": "IRL", "name": "Ireland" }, "geometry": { "type": "Point", "coordinates": [ -8.008236954295288, 53.202471243099282 ] } },
{ "type": "Feature", "properties": { "id": "IRN", "name": "Iran" }, "geometry": { "type": "Point", "coordinates": [ 54.202382941270649, 32.711217159846576 ] } },
{ "type": "Feature", "properties": { "id": "IRQ", "name": "Iraq" }, "geometry": { "type": "Point", "coordinates": [ 43.742178464201487, 33.108252832541716 ] } },
{ "type": "Feature", "properties": { "id": "ISL", "name": "Iceland" }, "geometry": { "type": "Point", "coordinates": [ -18.759842230972783, 65.103932551679719 ] } },
{ "type": "Feature", "properties": { "id": "ISR", "name": "Israel" }, "geometry": { "type": "Point", "coordinates": [ 35.005961782151346, 31.501089867806609 ] } },
{ "type": "Feature", "properties": { "id": "ITA", "name": "Italy" }, "geometry": { "type": "Point", "coordinates": [ 12.078021127598285, 42.91944665399285 ] } },
{ "type": "Feature", "properties": { "id": "JAM", "name": "Jamaica" }, "geometry": { "type": "Point", "coordinates": [ -77.324398820640681, 18.137938107726608 ] } },
{ "type": "Feature", "properties": { "id": "JOR", "name": "Jordan" }, "geometry": { "type": "Point", "coordinates": [ 36.786519134535752, 31.262610571220449 ] } },
{ "type": "Feature", "properties": { "id": "JPN", "name": "Japan" }, "geometry": { "type": "Point", "coordinates": [ 138.24674591046292, 37.966355513766729 ] } },
{ "type": "Feature", "properties": { "id": "KAZ", "name": "Kazakhstan" }, "geometry": { "type": "Point", "coordinates": [ 67.317520319462403, 48.469727418977357 ] } },
{ "type": "Feature", "properties": { "id": "KEN", "name": "Kenya" }, "geometry": { "type": "Point", "coordinates": [ 37.791376560810683, 0.597149940867783 ] } },
{ "type": "Feature", "properties": { "id": "KGZ", "name": "Kyrgyzstan" }, "geometry": { "type": "Point", "coordinates": [ 74.63640258040725, 41.528698724189255 ] } },
{ "type": "Feature", "properties": { "id": "KHM", "name": "Cambodia" }, "geometry": { "type": "Point", "coordinates": [ 104.876912116912308, 12.690331566034294 ] } },
{ "type": "Feature", "properties": { "id": "KOR", "name": "South Korea" }, "geometry": { "type": "Point", "coordinates": [ 127.8225765787694, 36.447470074742334 ] } },
{ "type": "Feature", "properties": { "id": "-99", "name": "Kosovo" }, "geometry": { "type": "Point", "coordinates": [ 20.895340948201373, 42.581336228525984 ] } },
{ "type": "Feature", "properties": { "id": "KWT", "name": "Kuwait" }, "geometry": { "type": "Point", "coordinates": [ 47.599499827318084, 29.309493041950532 ] } },
{ "type": "Feature", "properties": { "id": "LAO", "name": "Laos" }, "geometry": { "type": "Point", "coordinates": [ 103.731789395707253, 18.482305107160617 ] } },
{ "type": "Feature", "properties": { "id": "LBN", "name": "Lebanon" }, "geometry": { "type": "Point", "coordinates": [ 35.872060333549975, 33.914766493351493 ] } },
{ "type": "Feature", "properties": { "id": "LBR", "name": "Liberia" }, "geometry": { "type": "Point", "coordinates": [ -9.411866377426001, 6.434374724459524 ] } },
{ "type": "Feature", "properties": { "id": "LBY", "name": "Libya" }, "geometry": { "type": "Point", "coordinates": [ 17.94687004295988, 27.12240127549347 ] } },
{ "type": "Feature", "properties": { "id": "LKA", "name": "Sri Lanka" }, "geometry": { "type": "Point", "coordinates": [ 80.666963152388192, 7.70353674189789 ] } },
{ "type": "Feature", "properties": { "id": "LSO", "name": "Lesotho" }, "geometry": { "type": "Point", "coordinates": [ 28.169163488751618, -29.62834416934831 ] } },
{ "type": "Feature", "properties": { "id": "LTU", "name": "Lithuania" }, "geometry": { "type": "Point", "coordinates": [ 23.87662700333534, 55.298226735458059 ] } },
{ "type": "Feature", "properties": { "id": "LUX", "name": "Luxembourg" }, "geometry": { "type": "Point", "coordinates": [ 5.965188141769, 49.766722813539175 ] } },
{ "type": "Feature", "properties": { "id": "LVA", "name": "Latvia" }, "geometry": { "type": "Point", "coordinates": [ 24.829260792074912, 56.816583537512265 ] } },
{ "type": "Feature", "properties": { "id": "MAR", "name": "Morocco" }, "geometry": { "type": "Point", "coordinates": [ -8.286458885720085, 30.088561879814502 ] } },
{ "type": "Feature", "properties": { "id": "MDA", "name": "Moldova" }, "geometry": { "type": "Point", "coordinates": [ 28.405915989959382, 47.217579689457615 ] } },
{ "type": "Feature", "properties": { "id": "MDG", "name": "Madagascar" }, "geometry": { "type": "Point", "coordinates": [ 46.672226397973652, -19.450886122121695 ] } },
{ "type": "Feature", "properties": { "id": "MEX", "name": "Mexico" }, "geometry": { "type": "Point", "coordinates": [ -102.756064705733948, 24.177901775914748 ] } },
{ "type": "Feature", "properties": { "id": "MKD", "name": "Macedonia" }, "geometry": { "type": "Point", "coordinates": [ 21.69873498120656, 41.608847684165589 ] } },
{ "type": "Feature", "properties": { "id": "MLI", "name": "Mali" }, "geometry": { "type": "Point", "coordinates": [ -3.517981419067362, 17.367057255961971 ] } },
{ "type": "Feature", "properties": { "id": "MMR", "name": "Myanmar" }, "geometry": { "type": "Point", "coordinates": [ 96.502715179690711, 21.141665688103423 ] } },
{ "type": "Feature", "properties": { "id": "MNE", "name": "Montenegro" }, "geometry": { "type": "Point", "coordinates": [ 19.286416055600096, 42.791775717376964 ] } },
{ "type": "Feature", "properties": { "id": "MNG", "name": "Mongolia" }, "geometry": { "type": "Point", "coordinates": [ 102.908521616495946, 46.957971908344014 ] } },
{ "type": "Feature", "properties": { "id": "MOZ", "name": "Mozambique" }, "geometry": { "type": "Point", "coordinates": [ 35.437388782390116, -17.370129759236423 ] } },
{ "type": "Feature", "properties": { "id": "MRT", "name": "Mauritania" }, "geometry": { "type": "Point", "coordinates": [ -10.312995868070445, 20.297542855088803 ] } },
{ "type": "Feature", "properties": { "id": "MWI", "name": "Malawi" }, "geometry": { "type": "Point", "coordinates": [ 34.197181250663547, -13.194194738654948 ] } },
{ "type": "Feature", "properties": { "id": "MYS", "name": "Malaysia" }, "geometry": { "type": "Point", "coordinates": [ 109.69876620327716, 3.72947687329034 ] } },
{ "type": "Feature", "properties": { "id": "NAM", "name": "Namibia" }, "geometry": { "type": "Point", "coordinates": [ 17.163202177441086, -22.217051893860681 ] } },
{ "type": "Feature", "properties": { "id": "NCL", "name": "New Caledonia" }, "geometry": { "type": "Point", "coordinates": [ 165.537087147859495, -21.264854939455319 ] } },
{ "type": "Feature", "properties": { "id": "NER", "name": "Niger" }, "geometry": { "type": "Point", "coordinates": [ 9.349958158067684, 17.408218810678175 ] } },
{ "type": "Feature", "properties": { "id": "NGA", "name": "Nigeria" }, "geometry": { "type": "Point", "coordinates": [ 7.999721769018138, 9.571344062265245 ] } },
{ "type": "Feature", "properties": { "id": "NIC", "name": "Nicaragua" }, "geometry": { "type": "Point", "coordinates": [ -85.01956783683579, 12.8540074516175 ] } },
{ "type": "Feature", "properties": { "id": "NLD", "name": "Netherlands" }, "geometry": { "type": "Point", "coordinates": [ 5.516241576254108, 52.31229821705724 ] } },
{ "type": "Feature", "properties": { "id": "NOR", "name": "Norway" }, "geometry": { "type": "Point", "coordinates": [ 16.779279412499545, 73.740389595408956 ] } },
{ "type": "Feature", "properties": { "id": "NPL", "name": "Nepal" }, "geometry": { "type": "Point", "coordinates": [ 83.997841159922046, 28.251944531765965 ] } },
{ "type": "Feature", "properties": { "id": "NZL", "name": "New Zealand" }, "geometry": { "type": "Point", "coordinates": [ 172.576548872144173, -41.886065881446271 ] } },
{ "type": "Feature", "properties": { "id": "OMN", "name": "Oman" }, "geometry": { "type": "Point", "coordinates": [ 56.113449141113158, 20.653919275533507 ] } },
{ "type": "Feature", "properties": { "id": "PAK", "name": "Pakistan" }, "geometry": { "type": "Point", "coordinates": [ 69.506110616672316, 30.14771930146291 ] } },
{ "type": "Feature", "properties": { "id": "PAN", "name": "Panama" }, "geometry": { "type": "Point", "coordinates": [ -80.109338400223805, 8.531167471753689 ] } },
{ "type": "Feature", "properties": { "id": "PER", "name": "Peru" }, "geometry": { "type": "Point", "coordinates": [ -74.372237153059132, -9.276382621337268 ] } },
{ "type": "Feature", "properties": { "id": "PHL", "name": "Philippines" }, "geometry": { "type": "Point", "coordinates": [ 122.884915553928721, 11.84198289226347 ] } },
{ "type": "Feature", "properties": { "id": "PNG", "name": "Papua New Guinea" }, "geometry": { "type": "Point", "coordinates": [ 145.319422878614915, -6.461422770249045 ] } },
{ "type": "Feature", "properties": { "id": "POL", "name": "Poland" }, "geometry": { "type": "Point", "coordinates": [ 19.295073635353951, 52.210934060017031 ] } },
{ "type": "Feature", "properties": { "id": "PRI", "name": "Puerto Rico" }, "geometry": { "type": "Point", "coordinates": [ -66.479231676949226, 18.237421078231318 ] } },
{ "type": "Feature", "properties": { "id": "PRK", "name": "North Korea" }, "geometry": { "type": "Point", "coordinates": [ 127.182267355459587, 40.177061303331698 ] } },
{ "type": "Feature", "properties": { "id": "PRT", "name": "Portugal" }, "geometry": { "type": "Point", "coordinates": [ -8.053041540934249, 39.677508020469226 ] } },
{ "type": "Feature", "properties": { "id": "PRY", "name": "Paraguay" }, "geometry": { "type": "Point", "coordinates": [ -58.365501901922507, -23.297360979104511 ] } },
{ "type": "Feature", "properties": { "id": "QAT", "name": "Qatar" }, "geometry": { "type": "Point", "coordinates": [ 51.18357530746723, 25.323729227564673 ] } },
{ "type": "Feature", "properties": { "id": "ROU", "name": "Romania" }, "geometry": { "type": "Point", "coordinates": [ 24.937799339840193, 45.891702694977887 ] } },
{ "type": "Feature", "properties": { "id": "RUS", "name": "Russia" }, "geometry": { "type": "Point", "coordinates": [ 98.147101992686629, 64.778188899660009 ] } },
{ "type": "Feature", "properties": { "id": "RWA", "name": "Rwanda" }, "geometry": { "type": "Point", "coordinates": [ 29.918909933989013, -2.013674864582788 ] } },
{ "type": "Feature", "properties": { "id": "-99", "name": "Western Sahara" }, "geometry": { "type": "Point", "coordinates": [ -12.112906163155591, 24.334021012965504 ] } },
{ "type": "Feature", "properties": { "id": "SAU", "name": "Saudi Arabia" }, "geometry": { "type": "Point", "coordinates": [ 44.451149652659723, 24.280213666488507 ] } },
{ "type": "Feature", "properties": { "id": "SDN", "name": "Sudan" }, "geometry": { "type": "Point", "coordinates": [ 29.878865684689472, 16.078135987949608 ] } },
{ "type": "Feature", "properties": { "id": "SDS", "name": "South Sudan" }, "geometry": { "type": "Point", "coordinates": [ 30.197055482148102, 7.304328462265769 ] } },
{ "type": "Feature", "properties": { "id": "SEN", "name": "Senegal" }, "geometry": { "type": "Point", "coordinates": [ -14.511768990863953, 14.362201791905486 ] } },
{ "type": "Feature", "properties": { "id": "SLB", "name": "Solomon Islands" }, "geometry": { "type": "Point", "coordinates": [ 159.970635175676307, -8.857778990900366 ] } },
{ "type": "Feature", "properties": { "id": "SLE", "name": "Sierra Leone" }, "geometry": { "type": "Point", "coordinates": [ -11.795184476730642, 8.53271162598632 ] } },
{ "type": "Feature", "properties": { "id": "SLV", "name": "El Salvador" }, "geometry": { "type": "Point", "coordinates": [ -88.873244447226725, 13.726607965985508 ] } },
{ "type": "Feature", "properties": { "id": "-99", "name": "Somaliland" }, "geometry": { "type": "Point", "coordinates": [ 46.230390425607396, 9.760783344939956 ] } },
{ "type": "Feature", "properties": { "id": "SOM", "name": "Somalia" }, "geometry": { "type": "Point", "coordinates": [ 45.740310178771487, 4.777357306372489 ] } },
{ "type": "Feature", "properties": { "id": "SRB", "name": "Republic of Serbia" }, "geometry": { "type": "Point", "coordinates": [ 20.81089264210404, 44.25507870513119 ] } },
{ "type": "Feature", "properties": { "id": "SUR", "name": "Suriname" }, "geometry": { "type": "Point", "coordinates": [ -55.911412389886507, 4.121967037 ] } },
{ "type": "Feature", "properties": { "id": "SVK", "name": "Slovakia" }, "geometry": { "type": "Point", "coordinates": [ 19.512982772943115, 48.731459137060689 ] } },
{ "type": "Feature", "properties": { "id": "SVN", "name": "Slovenia" }, "geometry": { "type": "Point", "coordinates": [ 14.940188617510129, 46.128441473983187 ] } },
{ "type": "Feature", "properties": { "id": "SWE", "name": "Sweden" }, "geometry": { "type": "Point", "coordinates": [ 16.849431864033559, 63.441163826347712 ] } },
{ "type": "Feature", "properties": { "id": "SWZ", "name": "Swaziland" }, "geometry": { "type": "Point", "coordinates": [ 31.395298702549461, -26.49197129249783 ] } },
{ "type": "Feature", "properties": { "id": "SYR", "name": "Syria" }, "geometry": { "type": "Point", "coordinates": [ 38.55430987629142, 35.037614758344262 ] } },
{ "type": "Feature", "properties": { "id": "TCD", "name": "Chad" }, "geometry": { "type": "Point", "coordinates": [ 18.585559717811602, 15.437136349441246 ] } },
{ "type": "Feature", "properties": { "id": "TGO", "name": "Togo" }, "geometry": { "type": "Point", "coordinates": [ 0.995647624998795, 8.446926719937752 ] } },
{ "type": "Feature", "properties": { "id": "THA", "name": "Thailand" }, "geometry": { "type": "Point", "coordinates": [ 101.007533999676212, 15.086088252474735 ] } },
{ "type": "Feature", "properties": { "id": "TJK", "name": "Tajikistan" }, "geometry": { "type": "Point", "coordinates": [ 71.027366981047479, 38.598827428447088 ] } },
{ "type": "Feature", "properties": { "id": "TKM", "name": "Turkmenistan" }, "geometry": { "type": "Point", "coordinates": [ 59.23960854437199, 39.145649514753558 ] } },
{ "type": "Feature", "properties": { "id": "TLS", "name": "East Timor" }, "geometry": { "type": "Point", "coordinates": [ 125.966062838046241, -8.768003957429535 ] } },
{ "type": "Feature", "properties": { "id": "TTO", "name": "Trinidad and Tobago" }, "geometry": { "type": "Point", "coordinates": [ -61.330313777994164, 10.42850486276128 ] } },
{ "type": "Feature", "properties": { "id": "TUN", "name": "Tunisia" }, "geometry": { "type": "Point", "coordinates": [ 9.532879308348138, 34.222705838305309 ] } },
{ "type": "Feature", "properties": { "id": "TUR", "name": "Turkey" }, "geometry": { "type": "Point", "coordinates": [ 35.116065783328182, 39.111746851115022 ] } },
{ "type": "Feature", "properties": { "id": "TWN", "name": "Taiwan" }, "geometry": { "type": "Point", "coordinates": [ 120.976093809923057, 23.7480227627129 ] } },
{ "type": "Feature", "properties": { "id": "TZA", "name": "United Republic of Tanzania" }, "geometry": { "type": "Point", "coordinates": [ 34.758474047021366, -6.278363330577109 ] } },
{ "type": "Feature", "properties": { "id": "UGA", "name": "Uganda" }, "geometry": { "type": "Point", "coordinates": [ 32.357784040862335, 1.29666431817112 ] } },
{ "type": "Feature", "properties": { "id": "UKR", "name": "Ukraine" }, "geometry": { "type": "Point", "coordinates": [ 31.33005208739009, 49.054343590645772 ] } },
{ "type": "Feature", "properties": { "id": "URY", "name": "Uruguay" }, "geometry": { "type": "Point", "coordinates": [ -55.999949350700504, -32.802771572828334 ] } },
{ "type": "Feature", "properties": { "id": "USA", "name": "United States of America" }, "geometry": { "type": "Point", "coordinates": [ -119.450186986876517, 51.260009125923467 ] } },
{ "type": "Feature", "properties": { "id": "UZB", "name": "Uzbekistan" }, "geometry": { "type": "Point", "coordinates": [ 63.121189796545075, 41.827806355472084 ] } },
{ "type": "Feature", "properties": { "id": "VEN", "name": "Venezuela" }, "geometry": { "type": "Point", "coordinates": [ -66.169204159140889, 7.180816626173613 ] } },
{ "type": "Feature", "properties": { "id": "VNM", "name": "Vietnam" }, "geometry": { "type": "Point", "coordinates": [ 106.262233409887187, 16.821764480308328 ] } },
{ "type": "Feature", "properties": { "id": "VUT", "name": "Vanuatu" }, "geometry": { "type": "Point", "coordinates": [ 167.074392263910966, -15.544809901285502 ] } },
{ "type": "Feature", "properties": { "id": "PSE", "name": "West Bank" }, "geometry": { "type": "Point", "coordinates": [ 35.273426683291184, 31.942627911399374 ] } },
{ "type": "Feature", "properties": { "id": "YEM", "name": "Yemen" }, "geometry": { "type": "Point", "coordinates": [ 47.545648761733396, 15.928260763881099 ] } },
{ "type": "Feature", "properties": { "id": "ZAF", "name": "South Africa" }, "geometry": { "type": "Point", "coordinates": [ 24.993581820791881, -29.070147800147605 ] } },
{ "type": "Feature", "properties": { "id": "ZMB", "name": "Zambia" }, "geometry": { "type": "Point", "coordinates": [ 27.711075761100485, -13.427408116664708 ] } },
{ "type": "Feature", "properties": { "id": "ZWE", "name": "Zimbabwe" }, "geometry": { "type": "Point", "coordinates": [ 29.788427929791073, -18.929801008850635 ] } }
]
}
